ORBCOMM FM114           
1 41179U 15081A   22230.86852752  .00000440  00000+0  13895-3 0  9995
2 41179  47.0033 113.4885 0002820 291.2652  68.7931 14.55127295353848
ORBCOMM FM110           
1 41182U 15081D   22230.36494954  .00000665  00000+0  19051-3 0  9999
2 41182  47.0020 115.3278 0000595 124.5336 235.5605 14.55127355353646
ORBCOMM FM118           
1 41183U 15081E   22229.99889888  .00000466  00000+0  14506-3 0  9990
2 41183  47.0041 117.2338 0000836 114.4845 245.6126 14.55128536353696
ORBCOMM FM112           
1 41184U 15081F   22228.74666937  .00000234  00000+0  91687-4 0  9990
2 41184  47.0004  31.9760 0001675 324.7607  35.3166 14.55146746354738
ORBCOMM FM113           
1 41185U 15081G   22230.71504910  .00000252  00000+0  95787-4 0  9998
2 41185  47.0029  22.8786 0001298 349.5191  10.5666 14.55154917355007
ORBCOMM FM115           
1 41186U 15081H   22230.56673117  .00000154  00000+0  68501-4 0  9993
2 41186  46.9985 259.5679 0001104 300.5589  59.5188 14.59002718356683
ORBCOMM FM108           
1 41187U 15081J   22230.39801223  .00000349  00000+0  11821-3 0  9994
2 41187  47.0051 295.4068 0003107 251.1796 108.8751 14.55149001356101
ORBCOMM FM117           
1 41188U 15081K   22230.63774019  .00000292  00000+0  10516-3 0  9991
2 41188  47.0012 293.3810 0003726 264.9405  95.1054 14.55150302356185
ORBCOMM FM116           
1 41189U 15081L   22230.69216702  .00000289  00000+0  10446-3 0  9996
2 41189  47.0032  22.8503 0001702 336.3833  23.6973 14.55125501355002
ORBCOMM FM119 [-]       
1 41180U 15081B   22230.69211909  .00000225  00000+0  89663-4 0  9999
2 41180  47.0027  23.5115 0001508 346.9901  13.0944 14.55136396355073
ORBCOMM FM105 [-]       
1 41181U 15081C   22230.62041247  .00000030  00000+0  54628-4 0  9996
2 41181  47.0021 294.8531 0001592 345.3890  14.6943 14.43596163351347
