[{"OBJECT_NAME":"ORBCOMM FM114 [+]","OBJECT_ID":"2015-081A","EPOCH":"2022-08-18T20:50:40.777728","MEAN_MOTION":14.55127295,"ECCENTRICITY":0.000282,"INCLINATION":47.0033,"RA_OF_ASC_NODE":113.4885,"ARG_OF_PERICENTER":291.2652,"MEAN_ANOMALY":68.7931,"EPHEMERIS_TYPE":0,"CLASSIFICATION_TYPE":"U","NORAD_CAT_ID":41179,"ELEMENT_SET_NO":999,"REV_AT_EPOCH":35384,"BSTAR":0.00013895,"MEAN_MOTION_DOT":4.4e-6,"MEAN_MOTION_DDOT":0},{"OBJECT_NAME":"ORBCOMM FM119 [-]","OBJECT_ID":"2015-081B","EPOCH":"2022-08-18T16:36:39.089376","MEAN_MOTION":14.55136396,"ECCENTRICITY":0.0001508,"INCLINATION":47.0027,"RA_OF_ASC_NODE":23.5115,"ARG_OF_PERICENTER":346.9901,"MEAN_ANOMALY":13.0944,"EPHEMERIS_TYPE":0,"CLASSIFICATION_TYPE":"U","NORAD_CAT_ID":41180,"ELEMENT_SET_NO":999,"REV_AT_EPOCH":35507,"BSTAR":8.9663e-5,"MEAN_MOTION_DOT":2.25e-6,"MEAN_MOTION_DDOT":0},{"OBJECT_NAME":"ORBCOMM FM105 [-]","OBJECT_ID":"2015-081C","EPOCH":"2022-08-18T14:53:23.637408","MEAN_MOTION":14.43596163,"ECCENTRICITY":0.0001592,"INCLINATION":47.0021,"RA_OF_ASC_NODE":294.8531,"ARG_OF_PERICENTER":345.389,"MEAN_ANOMALY":14.6943,"EPHEMERIS_TYPE":0,"CLASSIFICATION_TYPE":"U","NORAD_CAT_ID":41181,"ELEMENT_SET_NO":999,"REV_AT_EPOCH":35134,"BSTAR":5.4628e-5,"MEAN_MOTION_DOT":3.0e-7,"MEAN_MOTION_DDOT":0},{"OBJECT_NAME":"ORBCOMM FM110 [+]","OBJECT_ID":"2015-081D","EPOCH":"2022-08-18T08:45:31.640256","MEAN_MOTION":14.55127355,"ECCENTRICITY":5.95e-5,"INCLINATION":47.002,"RA_OF_ASC_NODE":115.3278,"ARG_OF_PERICENTER":124.5336,"MEAN_ANOMALY":235.5605,"EPHEMERIS_TYPE":0,"CLASSIFICATION_TYPE":"U","NORAD_CAT_ID":41182,"ELEMENT_SET_NO":999,"REV_AT_EPOCH":35364,"BSTAR":0.00019051,"MEAN_MOTION_DOT":6.65e-6,"MEAN_MOTION_DDOT":0},{"OBJECT_NAME":"ORBCOMM FM118 [+]","OBJECT_ID":"2015-081E","EPOCH":"2022-08-17T23:58:24.863232","MEAN_MOTION":14.55128536,"ECCENTRICITY":8.36e-5,"INCLINATION":47.0041,"RA_OF_ASC_NODE":117.2338,"ARG_OF_PERICENTER":114.4845,"MEAN_ANOMALY":245.6126,"EPHEMERIS_TYPE":0,"CLASSIFICATION_TYPE":"U","NORAD_CAT_ID":41183,"ELEMENT_SET_NO":999,"REV_AT_EPOCH":35369,"BSTAR":0.00014506,"MEAN_MOTION_DOT":4.66e-6,"MEAN_MOTION_DDOT":0},{"OBJECT_NAME":"ORBCOMM FM112 [+]","OBJECT_ID":"2015-081F","EPOCH":"2022-08-16T17:55:12.233568","MEAN_MOTION":14.55146746,"ECCENTRICITY":0.0001675,"INCLINATION":47.0004,"RA_OF_ASC_NODE":31.976,"ARG_OF_PERICENTER":324.7607,"MEAN_ANOMALY":35.3166,"EPHEMERIS_TYPE":0,"CLASSIFICATION_TYPE":"U","NORAD_CAT_ID":41184,"ELEMENT_SET_NO":999,"REV_AT_EPOCH":35473,"BSTAR":9.1687e-5,"MEAN_MOTION_DOT":2.34e-6,"MEAN_MOTION_DDOT":0},{"OBJECT_NAME":"ORBCOMM FM113 [+]","OBJECT_ID":"2015-081G","EPOCH":"2022-08-18T17:09:40.242240","MEAN_MOTION":14.55154917,"ECCENTRICITY":0.0001298,"INCLINATION":47.0029,"RA_OF_ASC_NODE":22.8786,"ARG_OF_PERICENTER":349.5191,"MEAN_ANOMALY":10.5666,"EPHEMERIS_TYPE":0,"CLASSIFICATION_TYPE":"U","NORAD_CAT_ID":41185,"ELEMENT_SET_NO":999,"REV_AT_EPOCH":35500,"BSTAR":9.5787e-5,"MEAN_MOTION_DOT":2.52e-6,"MEAN_MOTION_DDOT":0},{"OBJECT_NAME":"ORBCOMM FM115 [+]","OBJECT_ID":"2015-081H","EPOCH":"2022-08-18T13:36:05.573088","MEAN_MOTION":14.59002718,"ECCENTRICITY":0.0001104,"INCLINATION":46.9985,"RA_OF_ASC_NODE":259.5679,"ARG_OF_PERICENTER":300.5589,"MEAN_ANOMALY":59.5188,"EPHEMERIS_TYPE":0,"CLASSIFICATION_TYPE":"U","NORAD_CAT_ID":41186,"ELEMENT_SET_NO":999,"REV_AT_EPOCH":35668,"BSTAR":6.8501e-5,"MEAN_MOTION_DOT":1.54e-6,"MEAN_MOTION_DDOT":0},{"OBJECT_NAME":"ORBCOMM FM108 [+]","OBJECT_ID":"2015-081J","EPOCH":"2022-08-18T09:33:08.256672","MEAN_MOTION":14.55149001,"ECCENTRICITY":0.0003107,"INCLINATION":47.0051,"RA_OF_ASC_NODE":295.4068,"ARG_OF_PERICENTER":251.1796,"MEAN_ANOMALY":108.8751,"EPHEMERIS_TYPE":0,"CLASSIFICATION_TYPE":"U","NORAD_CAT_ID":41187,"ELEMENT_SET_NO":999,"REV_AT_EPOCH":35610,"BSTAR":0.00011821,"MEAN_MOTION_DOT":3.49e-6,"MEAN_MOTION_DDOT":0},{"OBJECT_NAME":"ORBCOMM FM117 [+]","OBJECT_ID":"2015-081K","EPOCH":"2022-08-18T15:18:20.752416","MEAN_MOTION":14.55150302,"ECCENTRICITY":0.0003726,"INCLINATION":47.0012,"RA_OF_ASC_NODE":293.381,"ARG_OF_PERICENTER":264.9405,"MEAN_ANOMALY":95.1054,"EPHEMERIS_TYPE":0,"CLASSIFICATION_TYPE":"U","NORAD_CAT_ID":41188,"ELEMENT_SET_NO":999,"REV_AT_EPOCH":35618,"BSTAR":0.00010516,"MEAN_MOTION_DOT":2.92e-6,"MEAN_MOTION_DDOT":0},{"OBJECT_NAME":"ORBCOMM FM116 [+]","OBJECT_ID":"2015-081L","EPOCH":"2022-08-18T16:36:43.230528","MEAN_MOTION":14.55125501,"ECCENTRICITY":0.0001702,"INCLINATION":47.0032,"RA_OF_ASC_NODE":22.8503,"ARG_OF_PERICENTER":336.3833,"MEAN_ANOMALY":23.6973,"EPHEMERIS_TYPE":0,"CLASSIFICATION_TYPE":"U","NORAD_CAT_ID":41189,"ELEMENT_SET_NO":999,"REV_AT_EPOCH":35500,"BSTAR":0.00010446,"MEAN_MOTION_DOT":2.89e-6,"MEAN_MOTION_DDOT":0}]